start=new Date('2023-04-11T00:00:00.000Z').valueOf();
sats=[{"FILE":"3885363","INCLINATION":"53.0542","PERIOD":"95.591","COUNTRY_CODE":"US","TLE_LINE1":"1 44937U 20001Z   23100.92260380  .00009226  00000-0  63716-3 0  9991","ECCENTRICITY":"0.00028630","ARG_OF_PERICENTER":"78.9075","LAUNCH_DATE":"2020-01-07","EPHEMERIS_TYPE":"0","RA_OF_ASC_NODE":"62.0510","NORAD_CAT_ID":"44937","REF_FRAME":"TEME","GP_ID":"229876759","SEMIMAJOR_AXIS":"6925.294","RCS_SIZE":"LARGE","OBJECT_TYPE":"PAYLOAD","SITE":"AFETR","MEAN_ANOMALY":"281.2236","PERIAPSIS":"545.176","APOAPSIS":"549.141","BSTAR":"0.00063716000000","MEAN_ELEMENT_THEORY":"SGP4","TIME_SYSTEM":"UTC","MEAN_MOTION_DDOT":"0.0000000000000","CENTER_NAME":"EARTH","TLE_LINE2":"2 44937  53.0542  62.0510 0002863  78.9075 281.2236 15.06417886179790","MEAN_MOTION_DOT":"0.00009226","OBJECT_NAME":"STARLINK-1079","REV_AT_EPOCH":"17979","OBJECT_ID":"2020-001Z","DECAY_DATE":null,"MEAN_MOTION":"15.06417886","ELEMENT_SET_NO":"999","EPOCH":"2023-04-10T22:08:32.968320","CLASSIFICATION_TYPE":"U"},{"EPHEMERIS_TYPE":"0","RA_OF_ASC_NODE":"62.2010","LAUNCH_DATE":"2020-01-07","RCS_SIZE":"LARGE","SEMIMAJOR_AXIS":"6925.390","SITE":"AFETR","OBJECT_TYPE":"PAYLOAD","GP_ID":"229876499","REF_FRAME":"TEME","NORAD_CAT_ID":"44938","FILE":"3885363","ECCENTRICITY":"0.00014990","TLE_LINE1":"1 44938U 20001AA  23100.88942486 -.00005174  00000-0 -32883-3 0  9992","ARG_OF_PERICENTER":"64.9463","COUNTRY_CODE":"US","PERIOD":"95.593","INCLINATION":"53.0543","OBJECT_ID":"2020-001AA","DECAY_DATE":null,"OBJECT_NAME":"STARLINK-1082","REV_AT_EPOCH":"17978","MEAN_MOTION_DOT":"-0.00005174","EPOCH":"2023-04-10T21:20:46.307904","CLASSIFICATION_TYPE":"U","MEAN_MOTION":"15.06386593","ELEMENT_SET_NO":"999","MEAN_ELEMENT_THEORY":"SGP4","APOAPSIS":"548.293","BSTAR":"-0.00032883000000","PERIAPSIS":"546.217","MEAN_ANOMALY":"295.1681","TLE_LINE2":"2 44938  53.0543  62.2010 0001499  64.9463 295.1681 15.06386593179786","MEAN_MOTION_DDOT":"0.0000000000000","TIME_SYSTEM":"UTC","CENTER_NAME":"EARTH"},{"MEAN_MOTION":"15.06396624","ELEMENT_SET_NO":"999","EPOCH":"2023-04-10T21:31:23.927808","CLASSIFICATION_TYPE":"U","MEAN_MOTION_DOT":"0.00015647","OBJECT_NAME":"STARLINK-1083","REV_AT_EPOCH":"17978","OBJECT_ID":"2020-001AB","DECAY_DATE":null,"TIME_SYSTEM":"UTC","MEAN_MOTION_DDOT":"0.0000000000000","CENTER_NAME":"EARTH","TLE_LINE2":"2 44939  53.0551  62.1682 0000994  78.1314 281.9786 15.06396624179786","PERIAPSIS":"546.536","MEAN_ANOMALY":"281.9786","APOAPSIS":"547.912","BSTAR":"0.00106710000000","MEAN_ELEMENT_THEORY":"SGP4","NORAD_CAT_ID":"44939","REF_FRAME":"TEME","GP_ID":"229875260","SEMIMAJOR_AXIS":"6925.359","RCS_SIZE":"LARGE","OBJECT_TYPE":"PAYLOAD","SITE":"AFETR","LAUNCH_DATE":"2020-01-07","RA_OF_ASC_NODE":"62.1682","EPHEMERIS_TYPE":"0","INCLINATION":"53.0551","PERIOD":"95.592","COUNTRY_CODE":"US","TLE_LINE1":"1 44939U 20001AB  23100.89680472  .00015647  00000-0  10671-2 0  9992","ECCENTRICITY":"0.00009940","ARG_OF_PERICENTER":"78.1314","FILE":"3885363"},{"SITE":"AFETR","OBJECT_TYPE":"PAYLOAD","SEMIMAJOR_AXIS":"6925.321","RCS_SIZE":"LARGE","GP_ID":"229875507","REF_FRAME":"TEME","NORAD_CAT_ID":"44940","EPHEMERIS_TYPE":"0","RA_OF_ASC_NODE":"62.1158","LAUNCH_DATE":"2020-01-07","ARG_OF_PERICENTER":"90.7876","ECCENTRICITY":"0.00012980","TLE_LINE1":"1 44940U 20001AC  23100.90786635  .00005162  00000-0  36509-3 0  9994","COUNTRY_CODE":"US","PERIOD":"95.592","INCLINATION":"53.0545","FILE":"3885363","CLASSIFICATION_TYPE":"U","EPOCH":"2023-04-10T21:47:19.652640","ELEMENT_SET_NO":"999","MEAN_MOTION":"15.06409070","OBJECT_ID":"2020-001AC","DECAY_DATE":null,"REV_AT_EPOCH":"17978","OBJECT_NAME":"STARLINK-1091","MEAN_MOTION_DOT":"0.00005162","TLE_LINE2":"2 44940  53.0545  62.1158 0001298  90.7876 269.3261 15.06409070179788","TIME_SYSTEM":"UTC","MEAN_MOTION_DDOT":"0.0000000000000","CENTER_NAME":"EARTH","MEAN_ELEMENT_THEORY":"SGP4","BSTAR":"0.00036509000000","APOAPSIS":"548.085","MEAN_ANOMALY":"269.3261","PERIAPSIS":"546.287"},{"PERIAPSIS":"546.038","MEAN_ANOMALY":"265.8826","BSTAR":"0.00021306000000","APOAPSIS":"548.371","MEAN_ELEMENT_THEORY":"SGP4","MEAN_MOTION_DDOT":"0.0000000000000","TIME_SYSTEM":"UTC","CENTER_NAME":"EARTH","TLE_LINE2":"2 44941  53.0537  62.0160 0001684  94.2355 265.8826 15.06402930179799","MEAN_MOTION_DOT":"0.00002894","REV_AT_EPOCH":"17979","OBJECT_NAME":"STARLINK-1094","OBJECT_ID":"2020-001AD","DECAY_DATE":null,"ELEMENT_SET_NO":"999","MEAN_MOTION":"15.06402930","EPOCH":"2023-04-10T22:19:09.889248","CLASSIFICATION_TYPE":"U","FILE":"3885363","INCLINATION":"53.0537","PERIOD":"95.592","COUNTRY_CODE":"US","ARG_OF_PERICENTER":"94.2355","ECCENTRICITY":"0.00016840","TLE_LINE1":"1 44941U 20001AD  23100.92997557  .00002894  00000-0  21306-3 0  9992","LAUNCH_DATE":"2020-01-07","RA_OF_ASC_NODE":"62.0160","EPHEMERIS_TYPE":"0","REF_FRAME":"TEME","NORAD_CAT_ID":"44941","GP_ID":"229876261","SITE":"AFETR","OBJECT_TYPE":"PAYLOAD","SEMIMAJOR_AXIS":"6925.340","RCS_SIZE":"LARGE"},{"FILE":"3885195","TLE_LINE1":"1 44942U 20001AE  23100.26827639  .00010835  00000-0  51148-3 0  9994","ECCENTRICITY":"0.00055590","ARG_OF_PERICENTER":"59.3830","COUNTRY_CODE":"US","PERIOD":"94.740","INCLINATION":"53.0533","EPHEMERIS_TYPE":"0","RA_OF_ASC_NODE":"52.6426","LAUNCH_DATE":"2020-01-07","SEMIMAJOR_AXIS":"6884.133","RCS_SIZE":"LARGE","SITE":"AFETR","OBJECT_TYPE":"PAYLOAD","GP_ID":"229846046","REF_FRAME":"TEME","NORAD_CAT_ID":"44942","MEAN_ELEMENT_THEORY":"SGP4","APOAPSIS":"509.825","BSTAR":"0.00051148000000","PERIAPSIS":"502.171","MEAN_ANOMALY":"300.7712","TLE_LINE2":"2 44942  53.0533  52.6426 0005559  59.3830 300.7712 15.19948662179874","TIME_SYSTEM":"UTC","MEAN_MOTION_DDOT":"0.0000000000000","CENTER_NAME":"EARTH","DECAY_DATE":null,"OBJECT_ID":"2020-001AE","OBJECT_NAME":"STARLINK-1096","REV_AT_EPOCH":"17987","MEAN_MOTION_DOT":"0.00010835","CLASSIFICATION_TYPE":"U","EPOCH":"2023-04-10T06:26:19.080096","MEAN_MOTION":"15.19948662","ELEMENT_SET_NO":"999"},{"REF_FRAME":"TEME","NORAD_CAT_ID":"44943","GP_ID":"229844797","RCS_SIZE":"LARGE","SEMIMAJOR_AXIS":"6925.252","OBJECT_TYPE":"PAYLOAD","SITE":"AFETR","LAUNCH_DATE":"2020-01-07","RA_OF_ASC_NODE":"64.8630","EPHEMERIS_TYPE":"0","INCLINATION":"53.0533","PERIOD":"95.590","COUNTRY_CODE":"US","TLE_LINE1":"1 44943U 20001AF  23100.29598592  .00022100  00000-0  14966-2 0  9995","ECCENTRICITY":"0.00011110","ARG_OF_PERICENTER":"95.8348","FILE":"3885195","MEAN_MOTION":"15.06431449","ELEMENT_SET_NO":"999","EPOCH":"2023-04-10T07:06:13.183488","CLASSIFICATION_TYPE":"U","MEAN_MOTION_DOT":"0.00022100","OBJECT_NAME":"STARLINK-1100","REV_AT_EPOCH":"17969","DECAY_DATE":null,"OBJECT_ID":"2020-001AF","MEAN_MOTION_DDOT":"0.0000000000000","TIME_SYSTEM":"UTC","CENTER_NAME":"EARTH","TLE_LINE2":"2 44943  53.0533  64.8630 0001111  95.8348 264.2767 15.06431449179696","MEAN_ANOMALY":"264.2767","PERIAPSIS":"546.348","APOAPSIS":"547.887","BSTAR":"0.00149660000000","MEAN_ELEMENT_THEORY":"SGP4"},{"TLE_LINE2":"2 44944  53.0530  62.2650 0001677  88.9240 271.1941 15.06406401179780","TIME_SYSTEM":"UTC","MEAN_MOTION_DDOT":"0.0000000000000","CENTER_NAME":"EARTH","MEAN_ELEMENT_THEORY":"SGP4","PERIAPSIS":"546.033","MEAN_ANOMALY":"271.1941","APOAPSIS":"548.355","BSTAR":"0.00041608000000","CLASSIFICATION_TYPE":"U","EPOCH":"2023-04-10T20:59:32.674272","MEAN_MOTION":"15.06406401","ELEMENT_SET_NO":"999","OBJECT_NAME":"STARLINK-1108","REV_AT_EPOCH":"17978","DECAY_DATE":null,"OBJECT_ID":"2020-001AG","MEAN_MOTION_DOT":"0.00005922","COUNTRY_CODE":"US","TLE_LINE1":"1 44944U 20001AG  23100.87468373  .00005922  00000-0  41608-3 0  9990","ECCENTRICITY":"0.00016770","ARG_OF_PERICENTER":"88.9240","INCLINATION":"53.0530","PERIOD":"95.592","FILE":"3885363","GP_ID":"229876006","SEMIMAJOR_AXIS":"6925.329","RCS_SIZE":"LARGE","OBJECT_TYPE":"PAYLOAD","SITE":"AFETR","NORAD_CAT_ID":"44944","REF_FRAME":"TEME","EPHEMERIS_TYPE":"0","RA_OF_ASC_NODE":"62.2650","LAUNCH_DATE":"2020-01-07"},{"INCLINATION":"53.0544","PERIOD":"95.592","COUNTRY_CODE":"US","ARG_OF_PERICENTER":"95.1054","ECCENTRICITY":"0.00018710","TLE_LINE1":"1 44945U 20001AH  23100.90417831  .00007703  00000-0  53533-3 0  9997","FILE":"3885363","REF_FRAME":"TEME","NORAD_CAT_ID":"44945","GP_ID":"229876760","SITE":"AFETR","OBJECT_TYPE":"PAYLOAD","SEMIMAJOR_AXIS":"6925.324","RCS_SIZE":"LARGE","LAUNCH_DATE":"2020-01-07","EPHEMERIS_TYPE":"0","RA_OF_ASC_NODE":"62.1329","MEAN_MOTION_DDOT":"0.0000000000000","CENTER_NAME":"EARTH","TIME_SYSTEM":"UTC","TLE_LINE2":"2 44945  53.0544  62.1329 0001871  95.1054 265.0149 15.06408052179783","PERIAPSIS":"545.893","MEAN_ANOMALY":"265.0149","BSTAR":"0.00053533000000","APOAPSIS":"548.485","MEAN_ELEMENT_THEORY":"SGP4","ELEMENT_SET_NO":"999","MEAN_MOTION":"15.06408052","CLASSIFICATION_TYPE":"U","EPOCH":"2023-04-10T21:42:01.005984","MEAN_MOTION_DOT":"0.00007703","REV_AT_EPOCH":"17978","OBJECT_NAME":"STARLINK-1109","DECAY_DATE":null,"OBJECT_ID":"2020-001AH"},{"TLE_LINE2":"2 44946  53.0154  22.3697 0005151 145.2096 214.9241 15.31949625180237","MEAN_MOTION_DDOT":"0.0000000000000","CENTER_NAME":"EARTH","TIME_SYSTEM":"UTC","MEAN_ELEMENT_THEORY":"SGP4","MEAN_ANOMALY":"214.9241","PERIAPSIS":"466.471","BSTAR":"0.00304800000000","APOAPSIS":"473.525","CLASSIFICATION_TYPE":"U","EPOCH":"2023-04-10T03:21:14.314464","ELEMENT_SET_NO":"999","MEAN_MOTION":"15.31949625","REV_AT_EPOCH":"18023","OBJECT_NAME":"STARLINK-1110","OBJECT_ID":"2020-001AJ","DECAY_DATE":null,"MEAN_MOTION_DOT":"0.00096230","COUNTRY_CODE":"US","ARG_OF_PERICENTER":"145.2096","ECCENTRICITY":"0.00051510","TLE_LINE1":"1 44946U 20001AJ  23100.13974901  .00096230  00000-0  30480-2 0  9997","INCLINATION":"53.0154","PERIOD":"93.998","FILE":"3885195","GP_ID":"229846545","OBJECT_TYPE":"PAYLOAD","SITE":"AFETR","RCS_SIZE":"LARGE","SEMIMAJOR_AXIS":"6848.133","NORAD_CAT_ID":"44946","REF_FRAME":"TEME","EPHEMERIS_TYPE":"0","RA_OF_ASC_NODE":"22.3697","LAUNCH_DATE":"2020-01-07"}];
